{
"type": "FeatureCollection",
"name": "26_HRW",
"crs": { "type": "name", "properties": { "name": "urn:ogc:def:crs:EPSG::4269" } },
"features": [
{"type":"Feature","properties":{"Wheat_Protein_WGA_12_MB":9.5},"geometry":{"type":"Point","coordinates":[-99.728686,32.951305]}},
{"type":"Feature","properties":{"Wheat_Protein_WGA_12_MB":12.0},"geometry":{"type":"Point","coordinates":[-101.302847,33.954438]}},
{"type":"Feature","properties":{"Wheat_Protein_WGA_12_MB":10.7},"geometry":{"type":"Point","coordinates":[-97.974044,35.530536]}},
{"type":"Feature","properties":{"Wheat_Protein_WGA_12_MB":11.4},"geometry":{"type":"Point","coordinates":[-99.303298,34.13244]}},
{"type":"Feature","properties":{"Wheat_Protein_WGA_12_MB":13.4},"geometry":{"type":"Point","coordinates":[-99.668017,33.491228]}},
{"type":"Feature","properties":{"Wheat_Protein_WGA_12_MB":12.2},"geometry":{"type":"Point","coordinates":[-99.654618,33.178152]}},
{"type":"Feature","properties":{"Wheat_Protein_WGA_12_MB":11.2},"geometry":{"type":"Point","coordinates":[-99.898492,33.186857]}},
{"type":"Feature","properties":{"Wheat_Protein_WGA_12_MB":12.8},"geometry":{"type":"Point","coordinates":[-99.761493,33.987764]}},
{"type":"Feature","properties":{"Wheat_Protein_WGA_12_MB":12.5},"geometry":{"type":"Point","coordinates":[-99.728686,32.951305]}},
{"type":"Feature","properties":{"Wheat_Protein_WGA_12_MB":11.2},"geometry":{"type":"Point","coordinates":[-99.693246,32.613348]}},
{"type":"Feature","properties":{"Wheat_Protein_WGA_12_MB":11.1},"geometry":{"type":"Point","coordinates":[-98.565401,34.205801]}},
{"type":"Feature","properties":{"Wheat_Protein_WGA_12_MB":12.3},"geometry":{"type":"Point","coordinates":[-100.270691,34.96486]}},
{"type":"Feature","properties":{"Wheat_Protein_WGA_12_MB":12.2},"geometry":{"type":"Point","coordinates":[-102.784388,34.48232]}},
{"type":"Feature","properties":{"Wheat_Protein_WGA_12_MB":10.9},"geometry":{"type":"Point","coordinates":[-101.73489,34.541643]}},
{"type":"Feature","properties":{"Wheat_Protein_WGA_12_MB":12.8},"geometry":{"type":"Point","coordinates":[-102.26192,34.530579]}},
{"type":"Feature","properties":{"Wheat_Protein_WGA_12_MB":13.0},"geometry":{"type":"Point","coordinates":[-101.83998,35.205341]}},
{"type":"Feature","properties":{"Wheat_Protein_WGA_12_MB":11.2},"geometry":{"type":"Point","coordinates":[-99.011607,34.420644]}},
{"type":"Feature","properties":{"Wheat_Protein_WGA_12_MB":13.3},"geometry":{"type":"Point","coordinates":[-97.422811,34.813582]}},
{"type":"Feature","properties":{"Wheat_Protein_WGA_12_MB":12.9},"geometry":{"type":"Point","coordinates":[-100.516061,37.237445]}},
{"type":"Feature","properties":{"Wheat_Protein_WGA_12_MB":11.0},"geometry":{"type":"Point","coordinates":[-98.02106,37.104699]}},
{"type":"Feature","properties":{"Wheat_Protein_WGA_12_MB":13.1},"geometry":{"type":"Point","coordinates":[-100.132091,31.47443]}},
{"type":"Feature","properties":{"Wheat_Protein_WGA_12_MB":10.8},"geometry":{"type":"Point","coordinates":[-100.128721,32.057283]}},
{"type":"Feature","properties":{"Wheat_Protein_WGA_12_MB":11.8},"geometry":{"type":"Point","coordinates":[-97.3374,37.6923]}},
{"type":"Feature","properties":{"Wheat_Protein_WGA_12_MB":11.9},"geometry":{"type":"Point","coordinates":[-97.974044,35.530536]}},
{"type":"Feature","properties":{"Wheat_Protein_WGA_12_MB":13.8},"geometry":{"type":"Point","coordinates":[-98.670494,34.456745]}},
{"type":"Feature","properties":{"Wheat_Protein_WGA_12_MB":12.7},"geometry":{"type":"Point","coordinates":[-98.433493,35.117076]}},
{"type":"Feature","properties":{"Wheat_Protein_WGA_12_MB":15.4},"geometry":{"type":"Point","coordinates":[-98.53751,35.072883]}},
{"type":"Feature","properties":{"Wheat_Protein_WGA_12_MB":13.8},"geometry":{"type":"Point","coordinates":[-97.934734,34.964864]}},
{"type":"Feature","properties":{"Wheat_Protein_WGA_12_MB":12.8},"geometry":{"type":"Point","coordinates":[-98.351242,35.464102]}},
{"type":"Feature","properties":{"Wheat_Protein_WGA_12_MB":11.6},"geometry":{"type":"Point","coordinates":[-99.889421,36.397656]}},
{"type":"Feature","properties":{"Wheat_Protein_WGA_12_MB":11.7},"geometry":{"type":"Point","coordinates":[-98.670494,34.456745]}},
{"type":"Feature","properties":{"Wheat_Protein_WGA_12_MB":13.6},"geometry":{"type":"Point","coordinates":[-99.344443,34.688824]}},
{"type":"Feature","properties":{"Wheat_Protein_WGA_12_MB":13.8},"geometry":{"type":"Point","coordinates":[-99.011607,34.420644]}},
{"type":"Feature","properties":{"Wheat_Protein_WGA_12_MB":13.0},"geometry":{"type":"Point","coordinates":[-98.603273,36.305769]}},
{"type":"Feature","properties":{"Wheat_Protein_WGA_12_MB":13.8},"geometry":{"type":"Point","coordinates":[-98.014956,36.52839]}},
{"type":"Feature","properties":{"Wheat_Protein_WGA_12_MB":13.5},"geometry":{"type":"Point","coordinates":[-98.343622,36.098003]}},
{"type":"Feature","properties":{"Wheat_Protein_WGA_12_MB":12.4},"geometry":{"type":"Point","coordinates":[-97.372227,36.51379]}},
{"type":"Feature","properties":{"Wheat_Protein_WGA_12_MB":13.4},"geometry":{"type":"Point","coordinates":[-97.942445,36.00844]}},
{"type":"Feature","properties":{"Wheat_Protein_WGA_12_MB":13.6},"geometry":{"type":"Point","coordinates":[-97.88459,36.191198]}},
{"type":"Feature","properties":{"Wheat_Protein_WGA_12_MB":13.1},"geometry":{"type":"Point","coordinates":[-98.176768,35.84838]}},
{"type":"Feature","properties":{"Wheat_Protein_WGA_12_MB":11.9},"geometry":{"type":"Point","coordinates":[-97.992635,36.8763]}},
{"type":"Feature","properties":{"Wheat_Protein_WGA_12_MB":10.6},"geometry":{"type":"Point","coordinates":[-97.243062,38.093803]}},
{"type":"Feature","properties":{"Wheat_Protein_WGA_12_MB":10.9},"geometry":{"type":"Point","coordinates":[-97.243062,38.093803]}},
{"type":"Feature","properties":{"Wheat_Protein_WGA_12_MB":12.7},"geometry":{"type":"Point","coordinates":[-99.54598,34.237096]}},
{"type":"Feature","properties":{"Wheat_Protein_WGA_12_MB":12.9},"geometry":{"type":"Point","coordinates":[-97.422811,34.813582]}},
{"type":"Feature","properties":{"Wheat_Protein_WGA_12_MB":11.1},"geometry":{"type":"Point","coordinates":[-97.417814,38.384172]}},
{"type":"Feature","properties":{"Wheat_Protein_WGA_12_MB":11.3},"geometry":{"type":"Point","coordinates":[-97.243062,38.093803]}},
{"type":"Feature","properties":{"Wheat_Protein_WGA_12_MB":11.6},"geometry":{"type":"Point","coordinates":[-97.243062,38.093803]}},
{"type":"Feature","properties":{"Wheat_Protein_WGA_12_MB":10.4},"geometry":{"type":"Point","coordinates":[-97.243062,38.093803]}},
{"type":"Feature","properties":{"Wheat_Protein_WGA_12_MB":13.3},"geometry":{"type":"Point","coordinates":[-98.767602,37.652863]}},
{"type":"Feature","properties":{"Wheat_Protein_WGA_12_MB":10.7},"geometry":{"type":"Point","coordinates":[-97.621071,37.402302]}},
{"type":"Feature","properties":{"Wheat_Protein_WGA_12_MB":13.2},"geometry":{"type":"Point","coordinates":[-100.137892,38.624937]}},
{"type":"Feature","properties":{"Wheat_Protein_WGA_12_MB":11.9},"geometry":{"type":"Point","coordinates":[-100.906378,38.475563]}},
{"type":"Feature","properties":{"Wheat_Protein_WGA_12_MB":11.4},"geometry":{"type":"Point","coordinates":[-100.595972,38.481993]}},
{"type":"Feature","properties":{"Wheat_Protein_WGA_12_MB":10.3},"geometry":{"type":"Point","coordinates":[-97.243062,38.093803]}},
{"type":"Feature","properties":{"Wheat_Protein_WGA_12_MB":12.8},"geometry":{"type":"Point","coordinates":[-97.641195,38.83447]}},
{"type":"Feature","properties":{"Wheat_Protein_WGA_12_MB":13.0},"geometry":{"type":"Point","coordinates":[-97.641195,38.83447]}},
{"type":"Feature","properties":{"Wheat_Protein_WGA_12_MB":10.1},"geometry":{"type":"Point","coordinates":[-98.30013,37.427753]}},
{"type":"Feature","properties":{"Wheat_Protein_WGA_12_MB":12.0},"geometry":{"type":"Point","coordinates":[-98.408272,38.017108]}},
{"type":"Feature","properties":{"Wheat_Protein_WGA_12_MB":10.7},"geometry":{"type":"Point","coordinates":[-97.638076,37.256546]}},
{"type":"Feature","properties":{"Wheat_Protein_WGA_12_MB":12.9},"geometry":{"type":"Point","coordinates":[-99.24117,38.175195]}},
{"type":"Feature","properties":{"Wheat_Protein_WGA_12_MB":10.7},"geometry":{"type":"Point","coordinates":[-97.99406,37.298151]}},
{"type":"Feature","properties":{"Wheat_Protein_WGA_12_MB":12.1},"geometry":{"type":"Point","coordinates":[-97.417814,38.384172]}},
{"type":"Feature","properties":{"Wheat_Protein_WGA_12_MB":11.7},"geometry":{"type":"Point","coordinates":[-97.251942,38.348564]}},
{"type":"Feature","properties":{"Wheat_Protein_WGA_12_MB":12.1},"geometry":{"type":"Point","coordinates":[-98.147116,38.311395]}},
{"type":"Feature","properties":{"Wheat_Protein_WGA_12_MB":11.6},"geometry":{"type":"Point","coordinates":[-97.518796,38.188498]}},
{"type":"Feature","properties":{"Wheat_Protein_WGA_12_MB":13.3},"geometry":{"type":"Point","coordinates":[-101.689524,37.563274]}},
{"type":"Feature","properties":{"Wheat_Protein_WGA_12_MB":10.9},"geometry":{"type":"Point","coordinates":[-97.243062,38.093803]}},
{"type":"Feature","properties":{"Wheat_Protein_WGA_12_MB":10.7},"geometry":{"type":"Point","coordinates":[-97.243062,38.093803]}},
{"type":"Feature","properties":{"Wheat_Protein_WGA_12_MB":12.3},"geometry":{"type":"Point","coordinates":[-98.40048,34.384044]}},
{"type":"Feature","properties":{"Wheat_Protein_WGA_12_MB":13.8},"geometry":{"type":"Point","coordinates":[-98.40048,34.384044]}},
{"type":"Feature","properties":{"Wheat_Protein_WGA_12_MB":12.4},"geometry":{"type":"Point","coordinates":[-98.811522,38.580127]}},
{"type":"Feature","properties":{"Wheat_Protein_WGA_12_MB":13.1},"geometry":{"type":"Point","coordinates":[-99.1323,38.918326]}},
{"type":"Feature","properties":{"Wheat_Protein_WGA_12_MB":12.0},"geometry":{"type":"Point","coordinates":[-98.821129,38.376632]}},
{"type":"Feature","properties":{"Wheat_Protein_WGA_12_MB":13.4},"geometry":{"type":"Point","coordinates":[-98.59018,38.377752]}},
{"type":"Feature","properties":{"Wheat_Protein_WGA_12_MB":11.5},"geometry":{"type":"Point","coordinates":[-99.412081,38.262468]}},
{"type":"Feature","properties":{"Wheat_Protein_WGA_12_MB":14.1},"geometry":{"type":"Point","coordinates":[-98.949842,38.565286]}},
{"type":"Feature","properties":{"Wheat_Protein_WGA_12_MB":11.5},"geometry":{"type":"Point","coordinates":[-97.904047,37.959306]}},
{"type":"Feature","properties":{"Wheat_Protein_WGA_12_MB":11.7},"geometry":{"type":"Point","coordinates":[-98.747678,37.757553]}},
{"type":"Feature","properties":{"Wheat_Protein_WGA_12_MB":12.6},"geometry":{"type":"Point","coordinates":[-98.095615,39.001604]}},
{"type":"Feature","properties":{"Wheat_Protein_WGA_12_MB":14.0},"geometry":{"type":"Point","coordinates":[-102.315565,38.44145]}},
{"type":"Feature","properties":{"Wheat_Protein_WGA_12_MB":15.5},"geometry":{"type":"Point","coordinates":[-102.406207,38.829724]}},
{"type":"Feature","properties":{"Wheat_Protein_WGA_12_MB":12.4},"geometry":{"type":"Point","coordinates":[-101.691312,37.118526]}},
{"type":"Feature","properties":{"Wheat_Protein_WGA_12_MB":14.5},"geometry":{"type":"Point","coordinates":[-101.934437,37.191244]}},
{"type":"Feature","properties":{"Wheat_Protein_WGA_12_MB":13.0},"geometry":{"type":"Point","coordinates":[-100.597894,37.605674]}},
{"type":"Feature","properties":{"Wheat_Protein_WGA_12_MB":13.8},"geometry":{"type":"Point","coordinates":[-100.798196,37.562213]}},
{"type":"Feature","properties":{"Wheat_Protein_WGA_12_MB":10.9},"geometry":{"type":"Point","coordinates":[-97.243062,38.093803]}},
{"type":"Feature","properties":{"Wheat_Protein_WGA_12_MB":11.5},"geometry":{"type":"Point","coordinates":[-99.696456,38.480196]}},
{"type":"Feature","properties":{"Wheat_Protein_WGA_12_MB":11.7},"geometry":{"type":"Point","coordinates":[-96.985734,37.078401]}},
{"type":"Feature","properties":{"Wheat_Protein_WGA_12_MB":11.5},"geometry":{"type":"Point","coordinates":[-98.684386,37.514478]}},
{"type":"Feature","properties":{"Wheat_Protein_WGA_12_MB":11.2},"geometry":{"type":"Point","coordinates":[-96.750932,38.990698]}},
{"type":"Feature","properties":{"Wheat_Protein_WGA_12_MB":14.0},"geometry":{"type":"Point","coordinates":[-101.892954,35.837832]}},
{"type":"Feature","properties":{"Wheat_Protein_WGA_12_MB":12.6},"geometry":{"type":"Point","coordinates":[-99.583706,31.153617]}},
{"type":"Feature","properties":{"Wheat_Protein_WGA_12_MB":14.2},"geometry":{"type":"Point","coordinates":[-101.346467,38.482285]}},
{"type":"Feature","properties":{"Wheat_Protein_WGA_12_MB":12.8},"geometry":{"type":"Point","coordinates":[-102.315565,38.44145]}},
{"type":"Feature","properties":{"Wheat_Protein_WGA_12_MB":12.5},"geometry":{"type":"Point","coordinates":[-100.906378,38.475563]}},
{"type":"Feature","properties":{"Wheat_Protein_WGA_12_MB":12.5},"geometry":{"type":"Point","coordinates":[-101.999718,38.080738]}},
{"type":"Feature","properties":{"Wheat_Protein_WGA_12_MB":12.9},"geometry":{"type":"Point","coordinates":[-98.677968,39.045976]}},
{"type":"Feature","properties":{"Wheat_Protein_WGA_12_MB":12.8},"geometry":{"type":"Point","coordinates":[-99.369848,39.437341]}},
{"type":"Feature","properties":{"Wheat_Protein_WGA_12_MB":12.9},"geometry":{"type":"Point","coordinates":[-97.650247,39.17571]}},
{"type":"Feature","properties":{"Wheat_Protein_WGA_12_MB":12.9},"geometry":{"type":"Point","coordinates":[-98.56046,39.828274]}},
{"type":"Feature","properties":{"Wheat_Protein_WGA_12_MB":11.7},"geometry":{"type":"Point","coordinates":[-96.547604,39.171248]}},
{"type":"Feature","properties":{"Wheat_Protein_WGA_12_MB":13.4},"geometry":{"type":"Point","coordinates":[-97.268798,39.176139]}},
{"type":"Feature","properties":{"Wheat_Protein_WGA_12_MB":12.9},"geometry":{"type":"Point","coordinates":[-100.794745,38.00073]}},
{"type":"Feature","properties":{"Wheat_Protein_WGA_12_MB":12.8},"geometry":{"type":"Point","coordinates":[-98.610267,39.472985]}},
{"type":"Feature","properties":{"Wheat_Protein_WGA_12_MB":10.2},"geometry":{"type":"Point","coordinates":[-97.299597,37.377838]}},
{"type":"Feature","properties":{"Wheat_Protein_WGA_12_MB":11.5},"geometry":{"type":"Point","coordinates":[-97.509605,38.02864]}},
{"type":"Feature","properties":{"Wheat_Protein_WGA_12_MB":11.2},"geometry":{"type":"Point","coordinates":[-97.171281,37.085488]}},
{"type":"Feature","properties":{"Wheat_Protein_WGA_12_MB":13.8},"geometry":{"type":"Point","coordinates":[-104.282395,40.162541]}},
{"type":"Feature","properties":{"Wheat_Protein_WGA_12_MB":9.1},"geometry":{"type":"Point","coordinates":[-95.23696,38.800624]}},
{"type":"Feature","properties":{"Wheat_Protein_WGA_12_MB":10.6},"geometry":{"type":"Point","coordinates":[-95.783237,37.254588]}},
{"type":"Feature","properties":{"Wheat_Protein_WGA_12_MB":11.6},"geometry":{"type":"Point","coordinates":[-96.770094,37.490412]}},
{"type":"Feature","properties":{"Wheat_Protein_WGA_12_MB":11.7},"geometry":{"type":"Point","coordinates":[-104.799537,39.942861]}},
{"type":"Feature","properties":{"Wheat_Protein_WGA_12_MB":10.8},"geometry":{"type":"Point","coordinates":[-104.799537,39.942861]}},
{"type":"Feature","properties":{"Wheat_Protein_WGA_12_MB":14.7},"geometry":{"type":"Point","coordinates":[-101.12803,38.409775]}},
{"type":"Feature","properties":{"Wheat_Protein_WGA_12_MB":14.1},"geometry":{"type":"Point","coordinates":[-101.550605,40.176516]}},
{"type":"Feature","properties":{"Wheat_Protein_WGA_12_MB":14.3},"geometry":{"type":"Point","coordinates":[-98.160807,40.08949]}},
{"type":"Feature","properties":{"Wheat_Protein_WGA_12_MB":11.8},"geometry":{"type":"Point","coordinates":[-98.900618,40.176056]}},
{"type":"Feature","properties":{"Wheat_Protein_WGA_12_MB":12.3},"geometry":{"type":"Point","coordinates":[-96.727921,40.255302]}},
{"type":"Feature","properties":{"Wheat_Protein_WGA_12_MB":11.5},"geometry":{"type":"Point","coordinates":[-96.18301,39.74022]}},
{"type":"Feature","properties":{"Wheat_Protein_WGA_12_MB":14.7},"geometry":{"type":"Point","coordinates":[-104.799537,39.942861]}},
{"type":"Feature","properties":{"Wheat_Protein_WGA_12_MB":14.2},"geometry":{"type":"Point","coordinates":[-100.881216,38.981278]}},
{"type":"Feature","properties":{"Wheat_Protein_WGA_12_MB":12.8},"geometry":{"type":"Point","coordinates":[-101.22273,39.402693]}},
{"type":"Feature","properties":{"Wheat_Protein_WGA_12_MB":14.5},"geometry":{"type":"Point","coordinates":[-101.07248,39.060949]}},
{"type":"Feature","properties":{"Wheat_Protein_WGA_12_MB":14.7},"geometry":{"type":"Point","coordinates":[-100.964704,39.785138]}},
{"type":"Feature","properties":{"Wheat_Protein_WGA_12_MB":12.7},"geometry":{"type":"Point","coordinates":[-102.31835,37.318738]}},
{"type":"Feature","properties":{"Wheat_Protein_WGA_12_MB":14.6},"geometry":{"type":"Point","coordinates":[-102.406207,38.829724]}},
{"type":"Feature","properties":{"Wheat_Protein_WGA_12_MB":15.9},"geometry":{"type":"Point","coordinates":[-101.944147,39.350854]}},
{"type":"Feature","properties":{"Wheat_Protein_WGA_12_MB":15.3},"geometry":{"type":"Point","coordinates":[-101.944147,39.350854]}},
{"type":"Feature","properties":{"Wheat_Protein_WGA_12_MB":14.3},"geometry":{"type":"Point","coordinates":[-101.231794,38.951582]}},
{"type":"Feature","properties":{"Wheat_Protein_WGA_12_MB":13.7},"geometry":{"type":"Point","coordinates":[-104.416211,39.698858]}},
{"type":"Feature","properties":{"Wheat_Protein_WGA_12_MB":14.7},"geometry":{"type":"Point","coordinates":[-99.629768,40.248624]}},
{"type":"Feature","properties":{"Wheat_Protein_WGA_12_MB":14.7},"geometry":{"type":"Point","coordinates":[-99.629768,40.248624]}},
{"type":"Feature","properties":{"Wheat_Protein_WGA_12_MB":13.0},"geometry":{"type":"Point","coordinates":[-104.799537,39.942861]}},
{"type":"Feature","properties":{"Wheat_Protein_WGA_12_MB":13.8},"geometry":{"type":"Point","coordinates":[-104.799537,39.942861]}},
{"type":"Feature","properties":{"Wheat_Protein_WGA_12_MB":11.9},"geometry":{"type":"Point","coordinates":[-101.524342,39.785504]}},
{"type":"Feature","properties":{"Wheat_Protein_WGA_12_MB":13.5},"geometry":{"type":"Point","coordinates":[-99.958863,39.827575]}},
{"type":"Feature","properties":{"Wheat_Protein_WGA_12_MB":10.7},"geometry":{"type":"Point","coordinates":[-94.880126,38.570795]}},
{"type":"Feature","properties":{"Wheat_Protein_WGA_12_MB":9.7},"geometry":{"type":"Point","coordinates":[-95.45159,37.643576]}},
{"type":"Feature","properties":{"Wheat_Protein_WGA_12_MB":12.9},"geometry":{"type":"Point","coordinates":[-100.376426,39.611048]}},
{"type":"Feature","properties":{"Wheat_Protein_WGA_12_MB":13.6},"geometry":{"type":"Point","coordinates":[-101.041148,40.13351]}},
{"type":"Feature","properties":{"Wheat_Protein_WGA_12_MB":12.1},"geometry":{"type":"Point","coordinates":[-100.515549,39.82792]}},
{"type":"Feature","properties":{"Wheat_Protein_WGA_12_MB":11.8},"geometry":{"type":"Point","coordinates":[-95.315745,39.592826]}},
{"type":"Feature","properties":{"Wheat_Protein_WGA_12_MB":15.9},"geometry":{"type":"Point","coordinates":[-104.799537,39.942861]}},
{"type":"Feature","properties":{"Wheat_Protein_WGA_12_MB":11.8},"geometry":{"type":"Point","coordinates":[-104.5877,40.051088]}},
{"type":"Feature","properties":{"Wheat_Protein_WGA_12_MB":15.3},"geometry":{"type":"Point","coordinates":[-102.980413,39.303084]}},
{"type":"Feature","properties":{"Wheat_Protein_WGA_12_MB":16.7},"geometry":{"type":"Point","coordinates":[-104.282395,40.162541]}},
{"type":"Feature","properties":{"Wheat_Protein_WGA_12_MB":13.0},"geometry":{"type":"Point","coordinates":[-103.505981,38.99639]}},
{"type":"Feature","properties":{"Wheat_Protein_WGA_12_MB":14.0},"geometry":{"type":"Point","coordinates":[-103.275865,39.346733]}},
{"type":"Feature","properties":{"Wheat_Protein_WGA_12_MB":16.9},"geometry":{"type":"Point","coordinates":[-102.256224,39.704624]}},
{"type":"Feature","properties":{"Wheat_Protein_WGA_12_MB":14.8},"geometry":{"type":"Point","coordinates":[-102.555575,39.30526]}},
{"type":"Feature","properties":{"Wheat_Protein_WGA_12_MB":13.2},"geometry":{"type":"Point","coordinates":[-102.672566,41.220756]}},
{"type":"Feature","properties":{"Wheat_Protein_WGA_12_MB":13.6},"geometry":{"type":"Point","coordinates":[-102.149596,40.681918]}},
{"type":"Feature","properties":{"Wheat_Protein_WGA_12_MB":12.5},"geometry":{"type":"Point","coordinates":[-102.423535,41.112167]}},
{"type":"Feature","properties":{"Wheat_Protein_WGA_12_MB":14.9},"geometry":{"type":"Point","coordinates":[-101.055861,39.350654]}},
{"type":"Feature","properties":{"Wheat_Protein_WGA_12_MB":11.4},"geometry":{"type":"Point","coordinates":[-96.22551,37.685973]}},
{"type":"Feature","properties":{"Wheat_Protein_WGA_12_MB":11.3},"geometry":{"type":"Point","coordinates":[-95.741812,37.886387]}},
{"type":"Feature","properties":{"Wheat_Protein_WGA_12_MB":10.7},"geometry":{"type":"Point","coordinates":[-95.255391,37.32453]}},
{"type":"Feature","properties":{"Wheat_Protein_WGA_12_MB":11.5},"geometry":{"type":"Point","coordinates":[-96.586756,38.412808]}},
{"type":"Feature","properties":{"Wheat_Protein_WGA_12_MB":10.1},"geometry":{"type":"Point","coordinates":[-95.85267,37.559833]}},
{"type":"Feature","properties":{"Wheat_Protein_WGA_12_MB":9.3},"geometry":{"type":"Point","coordinates":[-95.212607,36.912782]}},
{"type":"Feature","properties":{"Wheat_Protein_WGA_12_MB":13.6},"geometry":{"type":"Point","coordinates":[-103.063324,41.140766]}},
{"type":"Feature","properties":{"Wheat_Protein_WGA_12_MB":12.8},"geometry":{"type":"Point","coordinates":[-104.799537,39.942861]}},
{"type":"Feature","properties":{"Wheat_Protein_WGA_12_MB":10.8},"geometry":{"type":"Point","coordinates":[-104.5877,40.051088]}},
{"type":"Feature","properties":{"Wheat_Protein_WGA_12_MB":12.2},"geometry":{"type":"Point","coordinates":[-99.873512,38.914137]}},
{"type":"Feature","properties":{"Wheat_Protein_WGA_12_MB":12.2},"geometry":{"type":"Point","coordinates":[-96.285683,39.892306]}},
{"type":"Feature","properties":{"Wheat_Protein_WGA_12_MB":13.0},"geometry":{"type":"Point","coordinates":[-103.665868,41.197655]}},
{"type":"Feature","properties":{"Wheat_Protein_WGA_12_MB":12.2},"geometry":{"type":"Point","coordinates":[-102.9776,41.1429]}},
{"type":"Feature","properties":{"Wheat_Protein_WGA_12_MB":12.3},"geometry":{"type":"Point","coordinates":[-102.9776,41.1429]}},
{"type":"Feature","properties":{"Wheat_Protein_WGA_12_MB":13.8},"geometry":{"type":"Point","coordinates":[-103.20913,42.367424]}},
{"type":"Feature","properties":{"Wheat_Protein_WGA_12_MB":12.1},"geometry":{"type":"Point","coordinates":[-101.737514,44.152157]}},
{"type":"Feature","properties":{"Wheat_Protein_WGA_12_MB":15.3},"geometry":{"type":"Point","coordinates":[-98.387596,40.589499]}},
{"type":"Feature","properties":{"Wheat_Protein_WGA_12_MB":12.1},"geometry":{"type":"Point","coordinates":[-96.457548,39.703906]}},
{"type":"Feature","properties":{"Wheat_Protein_WGA_12_MB":13.5},"geometry":{"type":"Point","coordinates":[-99.825803,43.863239]}},
{"type":"Feature","properties":{"Wheat_Protein_WGA_12_MB":14.5},"geometry":{"type":"Point","coordinates":[-98.492974,40.0894]}},
{"type":"Feature","properties":{"Wheat_Protein_WGA_12_MB":11.9},"geometry":{"type":"Point","coordinates":[-99.364913,40.7209]}},
{"type":"Feature","properties":{"Wheat_Protein_WGA_12_MB":15.0},"geometry":{"type":"Point","coordinates":[-98.160807,40.08949]}},
{"type":"Feature","properties":{"Wheat_Protein_WGA_12_MB":13.7},"geometry":{"type":"Point","coordinates":[-100.646918,40.175968]}},
{"type":"Feature","properties":{"Wheat_Protein_WGA_12_MB":16.1},"geometry":{"type":"Point","coordinates":[-104.799537,39.942861]}},
{"type":"Feature","properties":{"Wheat_Protein_WGA_12_MB":13.0},"geometry":{"type":"Point","coordinates":[-101.12803,38.409775]}},
{"type":"Feature","properties":{"Wheat_Protein_WGA_12_MB":12.3},"geometry":{"type":"Point","coordinates":[-103.177423,40.096784]}},
{"type":"Feature","properties":{"Wheat_Protein_WGA_12_MB":13.5},"geometry":{"type":"Point","coordinates":[-101.055861,39.350654]}},
{"type":"Feature","properties":{"Wheat_Protein_WGA_12_MB":12.3},"geometry":{"type":"Point","coordinates":[-101.36729,44.370914]}},
{"type":"Feature","properties":{"Wheat_Protein_WGA_12_MB":13.5},"geometry":{"type":"Point","coordinates":[-98.973528,43.760436]}},
{"type":"Feature","properties":{"Wheat_Protein_WGA_12_MB":13.2},"geometry":{"type":"Point","coordinates":[-101.999718,38.080738]}},
{"type":"Feature","properties":{"Wheat_Protein_WGA_12_MB":12.4},"geometry":{"type":"Point","coordinates":[-100.060798,44.722541]}},
{"type":"Feature","properties":{"Wheat_Protein_WGA_12_MB":13.7},"geometry":{"type":"Point","coordinates":[-100.267233,44.567083]}},
{"type":"Feature","properties":{"Wheat_Protein_WGA_12_MB":11.7},"geometry":{"type":"Point","coordinates":[-100.060798,44.722541]}},
{"type":"Feature","properties":{"Wheat_Protein_WGA_12_MB":12.6},"geometry":{"type":"Point","coordinates":[-101.753564,39.350924]}},
{"type":"Feature","properties":{"Wheat_Protein_WGA_12_MB":12.2},"geometry":{"type":"Point","coordinates":[-101.753564,39.350924]}},
{"type":"Feature","properties":{"Wheat_Protein_WGA_12_MB":12.4},"geometry":{"type":"Point","coordinates":[-108.221362,45.879751]}},
{"type":"Feature","properties":{"Wheat_Protein_WGA_12_MB":11.7},"geometry":{"type":"Point","coordinates":[-107.473294,45.862391]}},
{"type":"Feature","properties":{"Wheat_Protein_WGA_12_MB":11.7},"geometry":{"type":"Point","coordinates":[-107.866137,45.901847]}},
{"type":"Feature","properties":{"Wheat_Protein_WGA_12_MB":13.1},"geometry":{"type":"Point","coordinates":[-98.392513,44.190192]}},
{"type":"Feature","properties":{"Wheat_Protein_WGA_12_MB":13.4},"geometry":{"type":"Point","coordinates":[-101.568746,45.050708]}},
{"type":"Feature","properties":{"Wheat_Protein_WGA_12_MB":13.3},"geometry":{"type":"Point","coordinates":[-98.02626,43.718253]}},
{"type":"Feature","properties":{"Wheat_Protein_WGA_12_MB":12.4},"geometry":{"type":"Point","coordinates":[-100.060798,44.722541]}},
{"type":"Feature","properties":{"Wheat_Protein_WGA_12_MB":11.9},"geometry":{"type":"Point","coordinates":[-99.768518,44.431707]}},
{"type":"Feature","properties":{"Wheat_Protein_WGA_12_MB":13.4},"geometry":{"type":"Point","coordinates":[-101.164042,40.372224]}},
{"type":"Feature","properties":{"Wheat_Protein_WGA_12_MB":11.3},"geometry":{"type":"Point","coordinates":[-101.921681,41.153174]}},
{"type":"Feature","properties":{"Wheat_Protein_WGA_12_MB":11.7},"geometry":{"type":"Point","coordinates":[-100.784164,41.111976]}},
{"type":"Feature","properties":{"Wheat_Protein_WGA_12_MB":15.7},"geometry":{"type":"Point","coordinates":[-101.403949,41.199096]}},
{"type":"Feature","properties":{"Wheat_Protein_WGA_12_MB":12.5},"geometry":{"type":"Point","coordinates":[-99.825803,43.863239]}},
{"type":"Feature","properties":{"Wheat_Protein_WGA_12_MB":12.5},"geometry":{"type":"Point","coordinates":[-101.93525,40.850712]}},
{"type":"Feature","properties":{"Wheat_Protein_WGA_12_MB":13.5},"geometry":{"type":"Point","coordinates":[-100.871696,40.17631]}},
{"type":"Feature","properties":{"Wheat_Protein_WGA_12_MB":15.1},"geometry":{"type":"Point","coordinates":[-103.094768,39.683691]}},
{"type":"Feature","properties":{"Wheat_Protein_WGA_12_MB":12.6},"geometry":{"type":"Point","coordinates":[-109.623508,46.993248]}},
{"type":"Feature","properties":{"Wheat_Protein_WGA_12_MB":12.0},"geometry":{"type":"Point","coordinates":[-110.732658,47.910484]}},
{"type":"Feature","properties":{"Wheat_Protein_WGA_12_MB":11.4},"geometry":{"type":"Point","coordinates":[-111.10962,47.871921]}},
{"type":"Feature","properties":{"Wheat_Protein_WGA_12_MB":12.1},"geometry":{"type":"Point","coordinates":[-100.166474,40.743632]}},
{"type":"Feature","properties":{"Wheat_Protein_WGA_12_MB":12.3},"geometry":{"type":"Point","coordinates":[-111.10962,47.871921]}},
{"type":"Feature","properties":{"Wheat_Protein_WGA_12_MB":12.3},"geometry":{"type":"Point","coordinates":[-111.08241,48.436204]}},
{"type":"Feature","properties":{"Wheat_Protein_WGA_12_MB":12.4},"geometry":{"type":"Point","coordinates":[-101.36729,44.370914]}},
{"type":"Feature","properties":{"Wheat_Protein_WGA_12_MB":13.6},"geometry":{"type":"Point","coordinates":[-102.4725,40.6137]}},
{"type":"Feature","properties":{"Wheat_Protein_WGA_12_MB":13.1},"geometry":{"type":"Point","coordinates":[-99.646827,45.419284]}},
{"type":"Feature","properties":{"Wheat_Protein_WGA_12_MB":12.3},"geometry":{"type":"Point","coordinates":[-111.686694,43.577068]}},
{"type":"Feature","properties":{"Wheat_Protein_WGA_12_MB":10.2},"geometry":{"type":"Point","coordinates":[-112.658514,41.804184]}},
{"type":"Feature","properties":{"Wheat_Protein_WGA_12_MB":13.1},"geometry":{"type":"Point","coordinates":[-112.976338,42.842097]}},
{"type":"Feature","properties":{"Wheat_Protein_WGA_12_MB":13.0},"geometry":{"type":"Point","coordinates":[-110.51597,48.652747]}},
{"type":"Feature","properties":{"Wheat_Protein_WGA_12_MB":12.7},"geometry":{"type":"Point","coordinates":[-103.161446,42.220387]}},
{"type":"Feature","properties":{"Wheat_Protein_WGA_12_MB":11.9},"geometry":{"type":"Point","coordinates":[-100.48093,39.067938]}},
{"type":"Feature","properties":{"Wheat_Protein_WGA_12_MB":14.7},"geometry":{"type":"Point","coordinates":[-100.881216,38.981278]}},
{"type":"Feature","properties":{"Wheat_Protein_WGA_12_MB":13.9},"geometry":{"type":"Point","coordinates":[-104.815232,47.17296]}},
{"type":"Feature","properties":{"Wheat_Protein_WGA_12_MB":13.2},"geometry":{"type":"Point","coordinates":[-101.737514,44.152157]}},
{"type":"Feature","properties":{"Wheat_Protein_WGA_12_MB":11.8},"geometry":{"type":"Point","coordinates":[-111.518336,45.915117]}},
{"type":"Feature","properties":{"Wheat_Protein_WGA_12_MB":12.0},"geometry":{"type":"Point","coordinates":[-111.10962,47.871921]}},
{"type":"Feature","properties":{"Wheat_Protein_WGA_12_MB":12.6},"geometry":{"type":"Point","coordinates":[-97.976101,44.514825]}},
{"type":"Feature","properties":{"Wheat_Protein_WGA_12_MB":12.5},"geometry":{"type":"Point","coordinates":[-99.825803,43.863239]}},
{"type":"Feature","properties":{"Wheat_Protein_WGA_12_MB":13.6},"geometry":{"type":"Point","coordinates":[-111.885117,48.95642]}},
{"type":"Feature","properties":{"Wheat_Protein_WGA_12_MB":13.2},"geometry":{"type":"Point","coordinates":[-102.218837,44.097872]}},
{"type":"Feature","properties":{"Wheat_Protein_WGA_12_MB":14.3},"geometry":{"type":"Point","coordinates":[-100.666856,40.590144]}},
{"type":"Feature","properties":{"Wheat_Protein_WGA_12_MB":14.4},"geometry":{"type":"Point","coordinates":[-97.247064,48.60084]}},
{"type":"Feature","properties":{"Wheat_Protein_WGA_12_MB":13.6},"geometry":{"type":"Point","coordinates":[-108.67569,48.610114]}}
]
}
