{
"type": "FeatureCollection",
"name": "26_HRS",
"crs": { "type": "name", "properties": { "name": "urn:ogc:def:crs:EPSG::4269" } },
"features": [
{"type":"Feature","properties":{"Wheat_Protein_WGA_12_MB":14.2},"geometry":{"type":"Point","coordinates":[-98.132516,46.109429]}},
{"type":"Feature","properties":{"Wheat_Protein_WGA_12_MB":14.4},"geometry":{"type":"Point","coordinates":[-99.825803,43.863239]}},
{"type":"Feature","properties":{"Wheat_Protein_WGA_12_MB":16.4},"geometry":{"type":"Point","coordinates":[-112.976338,42.842097]}},
{"type":"Feature","properties":{"Wheat_Protein_WGA_12_MB":14.7},"geometry":{"type":"Point","coordinates":[-98.392513,44.190192]}},
{"type":"Feature","properties":{"Wheat_Protein_WGA_12_MB":14.9},"geometry":{"type":"Point","coordinates":[-99.768518,44.431707]}},
{"type":"Feature","properties":{"Wheat_Protein_WGA_12_MB":15.6},"geometry":{"type":"Point","coordinates":[-99.646827,45.419284]}},
{"type":"Feature","properties":{"Wheat_Protein_WGA_12_MB":15.8},"geometry":{"type":"Point","coordinates":[-96.4686,46.326375]}},
{"type":"Feature","properties":{"Wheat_Protein_WGA_12_MB":16.0},"geometry":{"type":"Point","coordinates":[-96.68827,46.413027]}},
{"type":"Feature","properties":{"Wheat_Protein_WGA_12_MB":13.8},"geometry":{"type":"Point","coordinates":[-96.725013,45.615236]}},
{"type":"Feature","properties":{"Wheat_Protein_WGA_12_MB":14.9},"geometry":{"type":"Point","coordinates":[-95.952036,45.28206]}},
{"type":"Feature","properties":{"Wheat_Protein_WGA_12_MB":14.8},"geometry":{"type":"Point","coordinates":[-95.594043,45.984549]}},
{"type":"Feature","properties":{"Wheat_Protein_WGA_12_MB":16.2},"geometry":{"type":"Point","coordinates":[-98.527454,45.467451]}},
{"type":"Feature","properties":{"Wheat_Protein_WGA_12_MB":15.2},"geometry":{"type":"Point","coordinates":[-97.939193,45.392177]}},
{"type":"Feature","properties":{"Wheat_Protein_WGA_12_MB":15.8},"geometry":{"type":"Point","coordinates":[-100.051258,45.847745]}},
{"type":"Feature","properties":{"Wheat_Protein_WGA_12_MB":15.4},"geometry":{"type":"Point","coordinates":[-99.328623,45.418919]}},
{"type":"Feature","properties":{"Wheat_Protein_WGA_12_MB":15.9},"geometry":{"type":"Point","coordinates":[-98.876851,45.418986]}},
{"type":"Feature","properties":{"Wheat_Protein_WGA_12_MB":14.6},"geometry":{"type":"Point","coordinates":[-95.825052,47.368821]}},
{"type":"Feature","properties":{"Wheat_Protein_WGA_12_MB":15.3},"geometry":{"type":"Point","coordinates":[-111.686694,43.577068]}},
{"type":"Feature","properties":{"Wheat_Protein_WGA_12_MB":13.9},"geometry":{"type":"Point","coordinates":[-112.4447,42.8714]}},
{"type":"Feature","properties":{"Wheat_Protein_WGA_12_MB":13.2},"geometry":{"type":"Point","coordinates":[-112.4447,42.8714]}},
{"type":"Feature","properties":{"Wheat_Protein_WGA_12_MB":14.8},"geometry":{"type":"Point","coordinates":[-112.4447,42.8714]}},
{"type":"Feature","properties":{"Wheat_Protein_WGA_12_MB":13.5},"geometry":{"type":"Point","coordinates":[-112.4447,42.8714]}},
{"type":"Feature","properties":{"Wheat_Protein_WGA_12_MB":12.9},"geometry":{"type":"Point","coordinates":[-112.4447,42.8714]}},
{"type":"Feature","properties":{"Wheat_Protein_WGA_12_MB":15.1},"geometry":{"type":"Point","coordinates":[-101.018093,45.70832]}},
{"type":"Feature","properties":{"Wheat_Protein_WGA_12_MB":15.1},"geometry":{"type":"Point","coordinates":[-101.018093,45.70832]}},
{"type":"Feature","properties":{"Wheat_Protein_WGA_12_MB":15.1},"geometry":{"type":"Point","coordinates":[-98.17186,47.305142]}},
{"type":"Feature","properties":{"Wheat_Protein_WGA_12_MB":15.8},"geometry":{"type":"Point","coordinates":[-101.141813,47.138804]}},
{"type":"Feature","properties":{"Wheat_Protein_WGA_12_MB":14.0},"geometry":{"type":"Point","coordinates":[-110.51597,48.652747]}},
{"type":"Feature","properties":{"Wheat_Protein_WGA_12_MB":15.7},"geometry":{"type":"Point","coordinates":[-101.568626,47.64254]}},
{"type":"Feature","properties":{"Wheat_Protein_WGA_12_MB":14.9},"geometry":{"type":"Point","coordinates":[-96.142032,46.064772]}},
{"type":"Feature","properties":{"Wheat_Protein_WGA_12_MB":14.8},"geometry":{"type":"Point","coordinates":[-96.4686,46.326375]}},
{"type":"Feature","properties":{"Wheat_Protein_WGA_12_MB":15.2},"geometry":{"type":"Point","coordinates":[-96.597497,46.543667]}},
{"type":"Feature","properties":{"Wheat_Protein_WGA_12_MB":15.3},"geometry":{"type":"Point","coordinates":[-97.484201,47.933208]}},
{"type":"Feature","properties":{"Wheat_Protein_WGA_12_MB":15.9},"geometry":{"type":"Point","coordinates":[-104.815232,47.17296]}},
{"type":"Feature","properties":{"Wheat_Protein_WGA_12_MB":14.8},"geometry":{"type":"Point","coordinates":[-97.024148,47.367822]}},
{"type":"Feature","properties":{"Wheat_Protein_WGA_12_MB":13.1},"geometry":{"type":"Point","coordinates":[-104.196293,47.736621]}},
{"type":"Feature","properties":{"Wheat_Protein_WGA_12_MB":12.8},"geometry":{"type":"Point","coordinates":[-105.23529,46.222525]}},
{"type":"Feature","properties":{"Wheat_Protein_WGA_12_MB":15.5},"geometry":{"type":"Point","coordinates":[-97.729226,47.541844]}},
{"type":"Feature","properties":{"Wheat_Protein_WGA_12_MB":15.1},"geometry":{"type":"Point","coordinates":[-97.283058,47.497872]}},
{"type":"Feature","properties":{"Wheat_Protein_WGA_12_MB":15.1},"geometry":{"type":"Point","coordinates":[-96.6056,46.2654]}},
{"type":"Feature","properties":{"Wheat_Protein_WGA_12_MB":15.9},"geometry":{"type":"Point","coordinates":[-96.746732,46.659453]}},
{"type":"Feature","properties":{"Wheat_Protein_WGA_12_MB":15.4},"geometry":{"type":"Point","coordinates":[-111.839036,48.164852]}},
{"type":"Feature","properties":{"Wheat_Protein_WGA_12_MB":14.7},"geometry":{"type":"Point","coordinates":[-98.140959,47.802641]}},
{"type":"Feature","properties":{"Wheat_Protein_WGA_12_MB":16.6},"geometry":{"type":"Point","coordinates":[-103.120101,46.112908]}},
{"type":"Feature","properties":{"Wheat_Protein_WGA_12_MB":16.3},"geometry":{"type":"Point","coordinates":[-101.761741,48.291583]}},
{"type":"Feature","properties":{"Wheat_Protein_WGA_12_MB":16.4},"geometry":{"type":"Point","coordinates":[-101.761741,48.291583]}}
]
}
