{
"type": "FeatureCollection",
"name": "26_SRW",
"crs": { "type": "name", "properties": { "name": "urn:ogc:def:crs:EPSG::4269" } },
"features": [
{"type":"Feature","properties":{},"geometry":{"type":"Point","coordinates":[-83.94034,32.440372]}},
{"type":"Feature","properties":{},"geometry":{"type":"Point","coordinates":[-96.193612,33.279077]}},
{"type":"Feature","properties":{},"geometry":{"type":"Point","coordinates":[-96.306981,32.938356]}},
{"type":"Feature","properties":{},"geometry":{"type":"Point","coordinates":[-96.544494,33.59106]}},
{"type":"Feature","properties":{},"geometry":{"type":"Point","coordinates":[-96.622841,33.255222]}},
{"type":"Feature","properties":{},"geometry":{"type":"Point","coordinates":[-97.353032,32.881522]}},
{"type":"Feature","properties":{},"geometry":{"type":"Point","coordinates":[-97.353032,32.881522]}},
{"type":"Feature","properties":{},"geometry":{"type":"Point","coordinates":[-87.937995,36.005031]}},
{"type":"Feature","properties":{},"geometry":{"type":"Point","coordinates":[-87.013675,34.620893]}},
{"type":"Feature","properties":{},"geometry":{"type":"Point","coordinates":[-87.369766,36.78147]}},
{"type":"Feature","properties":{},"geometry":{"type":"Point","coordinates":[-87.46668,36.916297]}},
{"type":"Feature","properties":{},"geometry":{"type":"Point","coordinates":[-87.533099,37.822726]}},
{"type":"Feature","properties":{},"geometry":{"type":"Point","coordinates":[-86.988914,37.863084]}},
{"type":"Feature","properties":{},"geometry":{"type":"Point","coordinates":[-88.020606,37.044738]}},
{"type":"Feature","properties":{},"geometry":{"type":"Point","coordinates":[-87.013675,34.620893]}},
{"type":"Feature","properties":{},"geometry":{"type":"Point","coordinates":[-86.874972,36.87022]}},
{"type":"Feature","properties":{},"geometry":{"type":"Point","coordinates":[-78.34307,34.986013]}},
{"type":"Feature","properties":{},"geometry":{"type":"Point","coordinates":[-78.251706,35.58806]}},
{"type":"Feature","properties":{},"geometry":{"type":"Point","coordinates":[-86.375031,35.033947]}},
{"type":"Feature","properties":{},"geometry":{"type":"Point","coordinates":[-87.369766,36.78147]}},
{"type":"Feature","properties":{},"geometry":{"type":"Point","coordinates":[-80.8137,36.221775]}},
{"type":"Feature","properties":{},"geometry":{"type":"Point","coordinates":[-87.167639,36.7222]}},
{"type":"Feature","properties":{},"geometry":{"type":"Point","coordinates":[-76.718936,35.623305]}},
{"type":"Feature","properties":{},"geometry":{"type":"Point","coordinates":[-77.3732,35.6116]}},
{"type":"Feature","properties":{},"geometry":{"type":"Point","coordinates":[-86.310172,34.335984]}},
{"type":"Feature","properties":{},"geometry":{"type":"Point","coordinates":[-89.227276,38.394931]}},
{"type":"Feature","properties":{},"geometry":{"type":"Point","coordinates":[-87.013675,34.620893]}},
{"type":"Feature","properties":{},"geometry":{"type":"Point","coordinates":[-88.859825,36.241834]}},
{"type":"Feature","properties":{},"geometry":{"type":"Point","coordinates":[-87.937995,36.005031]}},
{"type":"Feature","properties":{},"geometry":{"type":"Point","coordinates":[-75.9812,36.8598]}},
{"type":"Feature","properties":{},"geometry":{"type":"Point","coordinates":[-76.714326,36.862753]}},
{"type":"Feature","properties":{},"geometry":{"type":"Point","coordinates":[-89.1635,38.431818]}},
{"type":"Feature","properties":{},"geometry":{"type":"Point","coordinates":[-96.128,33.19357]}},
{"type":"Feature","properties":{},"geometry":{"type":"Point","coordinates":[-90.154724,38.307453]}},
{"type":"Feature","properties":{},"geometry":{"type":"Point","coordinates":[-90.960157,34.51472]}},
{"type":"Feature","properties":{},"geometry":{"type":"Point","coordinates":[-91.354574,35.248233]}},
{"type":"Feature","properties":{},"geometry":{"type":"Point","coordinates":[-89.161094,37.090332]}},
{"type":"Feature","properties":{},"geometry":{"type":"Point","coordinates":[-76.891644,37.58794]}},
{"type":"Feature","properties":{},"geometry":{"type":"Point","coordinates":[-89.161094,37.090332]}},
{"type":"Feature","properties":{},"geometry":{"type":"Point","coordinates":[-76.558878,36.876868]}},
{"type":"Feature","properties":{},"geometry":{"type":"Point","coordinates":[-77.104758,36.997302]}},
{"type":"Feature","properties":{},"geometry":{"type":"Point","coordinates":[-82.353465,33.190606]}},
{"type":"Feature","properties":{},"geometry":{"type":"Point","coordinates":[-82.353465,33.190606]}},
{"type":"Feature","properties":{},"geometry":{"type":"Point","coordinates":[-89.798945,36.818426]}},
{"type":"Feature","properties":{},"geometry":{"type":"Point","coordinates":[-87.5555,37.9744]}},
{"type":"Feature","properties":{},"geometry":{"type":"Point","coordinates":[-88.483489,38.125063]}},
{"type":"Feature","properties":{},"geometry":{"type":"Point","coordinates":[-89.161094,37.090332]}},
{"type":"Feature","properties":{},"geometry":{"type":"Point","coordinates":[-90.1443,37.881801]}},
{"type":"Feature","properties":{},"geometry":{"type":"Point","coordinates":[-89.416429,38.321258]}},
{"type":"Feature","properties":{},"geometry":{"type":"Point","coordinates":[-89.903764,37.746711]}},
{"type":"Feature","properties":{},"geometry":{"type":"Point","coordinates":[-89.903764,37.746711]}},
{"type":"Feature","properties":{},"geometry":{"type":"Point","coordinates":[-90.008645,38.20316]}},
{"type":"Feature","properties":{},"geometry":{"type":"Point","coordinates":[-76.05306,38.652398]}},
{"type":"Feature","properties":{},"geometry":{"type":"Point","coordinates":[-75.99313,38.867936]}},
{"type":"Feature","properties":{},"geometry":{"type":"Point","coordinates":[-75.939361,37.350994]}},
{"type":"Feature","properties":{},"geometry":{"type":"Point","coordinates":[-75.888748,38.964041]}},
{"type":"Feature","properties":{},"geometry":{"type":"Point","coordinates":[-89.700747,39.183327]}},
{"type":"Feature","properties":{},"geometry":{"type":"Point","coordinates":[-89.323704,38.628841]}},
{"type":"Feature","properties":{},"geometry":{"type":"Point","coordinates":[-75.933896,38.5379]}},
{"type":"Feature","properties":{},"geometry":{"type":"Point","coordinates":[-89.657682,38.764768]}},
{"type":"Feature","properties":{},"geometry":{"type":"Point","coordinates":[-90.579178,38.895703]}},
{"type":"Feature","properties":{},"geometry":{"type":"Point","coordinates":[-96.544494,33.59106]}},
{"type":"Feature","properties":{},"geometry":{"type":"Point","coordinates":[-89.295207,38.45428]}},
{"type":"Feature","properties":{},"geometry":{"type":"Point","coordinates":[-89.474973,38.517536]}},
{"type":"Feature","properties":{},"geometry":{"type":"Point","coordinates":[-89.990069,38.932644]}},
{"type":"Feature","properties":{},"geometry":{"type":"Point","coordinates":[-78.010048,38.43995]}},
{"type":"Feature","properties":{},"geometry":{"type":"Point","coordinates":[-78.010048,38.43995]}},
{"type":"Feature","properties":{},"geometry":{"type":"Point","coordinates":[-87.013675,34.620893]}},
{"type":"Feature","properties":{},"geometry":{"type":"Point","coordinates":[-75.579051,38.451046]}},
{"type":"Feature","properties":{},"geometry":{"type":"Point","coordinates":[-77.338426,39.46416]}},
{"type":"Feature","properties":{},"geometry":{"type":"Point","coordinates":[-82.855896,39.453535]}},
{"type":"Feature","properties":{},"geometry":{"type":"Point","coordinates":[-88.090602,38.705768]}},
{"type":"Feature","properties":{},"geometry":{"type":"Point","coordinates":[-87.013675,34.620893]}},
{"type":"Feature","properties":{},"geometry":{"type":"Point","coordinates":[-87.013675,34.620893]}},
{"type":"Feature","properties":{},"geometry":{"type":"Point","coordinates":[-96.677076,33.544843]}},
{"type":"Feature","properties":{},"geometry":{"type":"Point","coordinates":[-89.274261,36.914621]}},
{"type":"Feature","properties":{},"geometry":{"type":"Point","coordinates":[-89.307105,36.706424]}},
{"type":"Feature","properties":{},"geometry":{"type":"Point","coordinates":[-91.406691,33.514929]}},
{"type":"Feature","properties":{},"geometry":{"type":"Point","coordinates":[-87.46668,36.916297]}},
{"type":"Feature","properties":{},"geometry":{"type":"Point","coordinates":[-86.857594,36.509396]}},
{"type":"Feature","properties":{},"geometry":{"type":"Point","coordinates":[-91.563193,38.748222]}},
{"type":"Feature","properties":{},"geometry":{"type":"Point","coordinates":[-87.262453,36.743447]}},
{"type":"Feature","properties":{},"geometry":{"type":"Point","coordinates":[-83.54251,40.061344]}},
{"type":"Feature","properties":{},"geometry":{"type":"Point","coordinates":[-83.187469,40.285328]}},
{"type":"Feature","properties":{},"geometry":{"type":"Point","coordinates":[-82.138048,40.070316]}},
{"type":"Feature","properties":{},"geometry":{"type":"Point","coordinates":[-86.175758,40.524927]}},
{"type":"Feature","properties":{},"geometry":{"type":"Point","coordinates":[-84.987686,40.17146]}},
{"type":"Feature","properties":{},"geometry":{"type":"Point","coordinates":[-87.401548,40.293512]}},
{"type":"Feature","properties":{},"geometry":{"type":"Point","coordinates":[-88.748837,39.085815]}},
{"type":"Feature","properties":{},"geometry":{"type":"Point","coordinates":[-88.734141,38.851484]}},
{"type":"Feature","properties":{},"geometry":{"type":"Point","coordinates":[-88.5797,39.10813]}},
{"type":"Feature","properties":{},"geometry":{"type":"Point","coordinates":[-94.281118,37.181249]}},
{"type":"Feature","properties":{},"geometry":{"type":"Point","coordinates":[-94.273246,37.515963]}},
{"type":"Feature","properties":{},"geometry":{"type":"Point","coordinates":[-91.705459,39.671546]}},
{"type":"Feature","properties":{},"geometry":{"type":"Point","coordinates":[-83.777858,40.118454]}},
{"type":"Feature","properties":{},"geometry":{"type":"Point","coordinates":[-83.368674,40.26356]}},
{"type":"Feature","properties":{},"geometry":{"type":"Point","coordinates":[-82.752469,40.556861]}},
{"type":"Feature","properties":{},"geometry":{"type":"Point","coordinates":[-83.326534,40.425717]}},
{"type":"Feature","properties":{},"geometry":{"type":"Point","coordinates":[-88.190402,44.002523]}},
{"type":"Feature","properties":{},"geometry":{"type":"Point","coordinates":[-88.041902,42.70649]}},
{"type":"Feature","properties":{},"geometry":{"type":"Point","coordinates":[-76.575423,39.660394]}},
{"type":"Feature","properties":{},"geometry":{"type":"Point","coordinates":[-84.216701,43.165114]}},
{"type":"Feature","properties":{},"geometry":{"type":"Point","coordinates":[-75.16234,40.862137]}},
{"type":"Feature","properties":{},"geometry":{"type":"Point","coordinates":[-76.428979,41.045712]}},
{"type":"Feature","properties":{},"geometry":{"type":"Point","coordinates":[-84.220786,43.414854]}},
{"type":"Feature","properties":{},"geometry":{"type":"Point","coordinates":[-84.220786,43.414854]}},
{"type":"Feature","properties":{},"geometry":{"type":"Point","coordinates":[-77.74857,42.903024]}},
{"type":"Feature","properties":{},"geometry":{"type":"Point","coordinates":[-88.283218,44.673924]}},
{"type":"Feature","properties":{},"geometry":{"type":"Point","coordinates":[-82.50401,40.37855]}},
{"type":"Feature","properties":{},"geometry":{"type":"Point","coordinates":[-90.456498,44.755964]}},
{"type":"Feature","properties":{},"geometry":{"type":"Point","coordinates":[-90.306919,45.010324]}},
{"type":"Feature","properties":{},"geometry":{"type":"Point","coordinates":[-83.187338,40.478372]}},
{"type":"Feature","properties":{},"geometry":{"type":"Point","coordinates":[-76.075379,39.193196]}}
]
}
